[{"OBJECT_NAME":"VSP ROSE","OBJECT_ID":"2024-043AC","EPOCH":"2026-03-09T21:48:06.922944","MEAN_MOTION":15.27746075,"ECCENTRICITY":0.00099339,"INCLINATION":97.5443,"RA_OF_ASC_NODE":203.927,"ARG_OF_PERICENTER":232.2702,"MEAN_ANOMALY":127.7637,"EPHEMERIS_TYPE":0,"CLASSIFICATION_TYPE":"U","NORAD_CAT_ID":59124,"ELEMENT_SET_NO":999,"REV_AT_EPOCH":11182,"BSTAR":0.00025731354,"MEAN_MOTION_DOT":6.907e-5,"MEAN_MOTION_DDOT":0},{"OBJECT_NAME":"STARLINK-32087","OBJECT_ID":"2024-086W","EPOCH":"2026-03-09T00:56:36.177504","MEAN_MOTION":15.27570023,"ECCENTRICITY":0.00011213,"INCLINATION":43.0047,"RA_OF_ASC_NODE":63.4841,"ARG_OF_PERICENTER":270.5302,"MEAN_ANOMALY":89.5421,"EPHEMERIS_TYPE":0,"CLASSIFICATION_TYPE":"U","NORAD_CAT_ID":59702,"ELEMENT_SET_NO":999,"REV_AT_EPOCH":10401,"BSTAR":-1.988193e-5,"MEAN_MOTION_DOT":-8.09e-6,"MEAN_MOTION_DDOT":0}]
